[{"OBJECT_NAME":"STARLINK-2642","OBJECT_ID":"2021-040K","EPOCH":"2026-03-10T00:00:02.999808","MEAN_MOTION":15.26483116,"ECCENTRICITY":0.00011873,"INCLINATION":53.1432,"RA_OF_ASC_NODE":189.485,"ARG_OF_PERICENTER":75.2668,"MEAN_ANOMALY":286.1269,"EPHEMERIS_TYPE":0,"CLASSIFICATION_TYPE":"U","NORAD_CAT_ID":48437,"ELEMENT_SET_NO":999,"REV_AT_EPOCH":574,"BSTAR":0.059854525,"MEAN_MOTION_DOT":0.01729147,"MEAN_MOTION_DDOT":0},{"OBJECT_NAME":"OBJECT K","OBJECT_ID":"2024-205K","EPOCH":"2026-03-09T22:22:01.331040","MEAN_MOTION":15.27932792,"ECCENTRICITY":0.00106729,"INCLINATION":97.417,"RA_OF_ASC_NODE":146.2172,"ARG_OF_PERICENTER":37.4736,"MEAN_ANOMALY":322.7246,"EPHEMERIS_TYPE":0,"CLASSIFICATION_TYPE":"U","NORAD_CAT_ID":61903,"ELEMENT_SET_NO":999,"REV_AT_EPOCH":7347,"BSTAR":0.00067315144,"MEAN_MOTION_DOT":0.00018331,"MEAN_MOTION_DDOT":0}]
